QIANFAN-17              
1 60395U 24140S   25362.28743279  .00000124  00000+0  17262-3 0  9991
2 60395  88.9786 297.8281 0015189 153.8172 206.3751 13.50979958 70231
QIANFAN-18              
1 60396U 24140T   25362.26685018  .00000146  00000+0  20714-3 0  9996
2 60396  88.9779 297.3628 0015069 136.9158 223.3176 13.50980023 69623
QIANFAN-19              
1 61552U 24185A   25362.22075417  .00000608  00000+0  31127-3 0  9995
2 61552  88.9813  76.1707 0005040 245.1429 114.9234 14.14312313 71850
QIANFAN-20              
1 61553U 24185B   25362.24213613  .00000532  00000+0  30019-3 0  9995
2 61553  88.9812  76.5077 0003674 305.8550  54.2292 14.08859276 71671
QIANFAN-21              
1 61554U 24185C   25362.22486863  .00000819  00000+0  36019-3 0  9997
2 61554  88.9727  75.1690 0008834 320.9622  39.0931 14.22629482 72171
QIANFAN-22              
1 61555U 24185D   25362.30814645  .00000221  00000+0  18015-3 0  9993
2 61555  88.9796  77.5438 0004763 320.7935  39.2890 13.86309180 71091
QIANFAN-23              
1 61556U 24185E   25362.24499724  .00000572  00000+0  28134-3 0  9996
2 61556  88.9805  75.9703 0005580 261.7175  98.3380 14.16308019 71946
QIANFAN-24              
1 61557U 24185F   25362.28476903  .00000695  00000+0  29774-3 0  9992
2 61557  88.9786  75.3452 0007685 239.1287 120.9150 14.23830745 72235
